{"type": "FeatureCollection", "features": [{"type": "Feature", "properties": {"name": "Brooklyn"}, "geometry": {"type": "Polygon", "coordinates": [[[-74.019577, 40.679654], [-74.008663, 40.686249], [-74.0082907, 40.6864417], [-74.0080914, 40.6875085], [-74.0074623, 40.6886621], [-74.0069664, 40.6889994], [-74.0064699, 40.6898545], [-74.0060025, 40.6905979], [-74.0054419, 40.691317], [-74.0050007, 40.6922553], [-74.0041318, 40.6935657], [-74.0036039, 40.6941589], [-74.0033816, 40.6946775], [-74.0026662, 40.6957649], [-74.0018898, 40.6968077], [-74.0015556, 40.6972918], [-74.0011074, 40.6980893], [-74.0005834, 40.6989323], [-74.0002365, 40.6994949], [-73.9995497, 40.7004296], [-73.9963451, 40.7033735], [-73.9959947, 40.7037725], [-73.9951925, 40.7038071], [-73.9945629, 40.7042712], [-73.9935158, 40.7046716], [-73.990749, 40.7049], [-73.9901452, 40.7050162], [-73.9864168, 40.705454], [-73.9834159, 40.7057302], [-73.9830481, 40.7056703], [-73.9824381, 40.7058529], [-73.980921, 40.7059673], [-73.97912, 40.706065], [-73.977116, 40.706533], [-73.972864, 40.708824], [-73.97226, 40.709102], [-73.97054, 40.707313], [-73.9701825, 40.7069404], [-73.970288, 40.705753], [-73.970129, 40.705383], [-73.969312, 40.705475], [-73.969262, 40.706803], [-73.969307, 40.707116], [-73.969867, 40.707916], [-73.9704007, 40.7086318], [-73.9701914, 40.7092385], [-73.9700064, 40.7105491], [-73.969061, 40.711744], [-73.9689119, 40.7131879], [-73.9677402, 40.7157309], [-73.9673055, 40.7170152], [-73.9679043, 40.7173184], [-73.966666, 40.7194968], [-73.9656943, 40.7206834], [-73.9649308, 40.7214952], [-73.9635168, 40.7217312], [-73.9627691, 40.7227582], [-73.961722, 40.72487], [-73.962109, 40.725105], [-73.961758, 40.725784], [-73.961741, 40.726686], [-73.9619238, 40.7275427], [-73.9617512, 40.7281249], [-73.9613803, 40.729069], [-73.961465, 40.730764], [-73.962406, 40.732926], [-73.962413, 40.73399], [-73.962112, 40.734528], [-73.962547, 40.736437], [-73.957176, 40.739246], [-73.955248, 40.739434], [-73.953823, 40.739409], [-73.952264, 40.739155], [-73.950077, 40.738554], [-73.947442, 40.737647], [-73.942161, 40.735728], [-73.941287, 40.734948], [-73.940838, 40.734252], [-73.9399, 40.732084], [-73.939496, 40.731271], [-73.938361, 40.730354], [-73.936871, 40.729494], [-73.934938, 40.728904], [-73.92989, 40.728178], [-73.929206, 40.727742], [-73.927425, 40.725851], [-73.925499, 40.721605], [-73.924438, 40.720405], [-73.924392, 40.71839], [-73.923139, 40.717302], [-73.922804, 40.716745], [-73.922727, 40.716199], [-73.923225, 40.71596], [-73.923993, 40.715727], [-73.924558, 40.715216], [-73.924055, 40.714014], [-73.922365, 40.712945], [-73.921442, 40.71093], [-73.920744, 40.710528], [-73.921898, 40.709393], [-73.918849, 40.707606], [-73.9184815, 40.7073819], [-73.918099, 40.707148], [-73.911806, 40.703433], [-73.912903, 40.70236], [-73.910678, 40.701044], [-73.911819, 40.699939], [-73.911039, 40.699535], [-73.909534, 40.698672], [-73.908772, 40.698254], [-73.906521, 40.696959], [-73.904459, 40.695804], [-73.905974, 40.694229], [-73.9051744, 40.6937756], [-73.9038701, 40.6930313], [-73.901664, 40.691779], [-73.902111, 40.691259], [-73.900667, 40.688047], [-73.901216, 40.687841], [-73.896477, 40.682316], [-73.896252, 40.682839], [-73.895974, 40.683264], [-73.895063, 40.684348], [-73.894712, 40.68474], [-73.894148, 40.685287], [-73.893212, 40.68403], [-73.892737, 40.683499], [-73.890314, 40.684899], [-73.88973, 40.684227], [-73.888584, 40.685042], [-73.887753, 40.686132], [-73.884625, 40.687656], [-73.883971, 40.687933], [-73.882465, 40.689152], [-73.879121, 40.691649], [-73.874301, 40.694302], [-73.869071, 40.695297], [-73.867912, 40.690461], [-73.867609, 40.68913], [-73.867453, 40.688361], [-73.866856, 40.686324], [-73.866591, 40.685257], [-73.866519, 40.684458], [-73.866315, 40.683248], [-73.866026, 40.681917], [-73.864994, 40.682128], [-73.864101, 40.682371], [-73.8633459, 40.679315], [-73.8628494, 40.679137], [-73.862345, 40.679163], [-73.8610735, 40.6740317], [-73.860382, 40.671241], [-73.857633, 40.671655], [-73.8572877, 40.67032], [-73.856714, 40.668102], [-73.855698, 40.663712], [-73.85841, 40.663271], [-73.857572, 40.659913], [-73.859508, 40.659681], [-73.860342, 40.659529], [-73.861617, 40.659103], [-73.863538, 40.658296], [-73.862943, 40.65751], [-73.861247, 40.655269], [-73.857376, 40.650195], [-73.856693, 40.649302], [-73.855139, 40.642871], [-73.84803, 40.643834], [-73.832945, 40.628979], [-73.833023, 40.627981], [-73.833232, 40.624091], [-73.833279, 40.623245], [-73.833296, 40.622944], [-73.833815, 40.613655], [-73.834171, 40.607899], [-73.83424, 40.60679], [-73.835197, 40.605646], [-73.849784, 40.588196], [-73.859872, 40.583496], [-73.867356, 40.579983], [-73.874585, 40.576559], [-73.878953, 40.574447], [-73.89155, 40.572346], [-73.90557, 40.571408], [-73.9614, 40.56256], [-73.999394, 40.556568], [-74.002418, 40.556046], [-74.013366, 40.554293], [-74.028447, 40.551909], [-74.038053, 40.550339], [-74.055766, 40.651475], [-74.055906, 40.647346], [-74.056394, 40.635307], [-74.056688, 40.627039], [-74.055414, 40.625132], [-74.052469, 40.620324], [-74.041565, 40.602996], [-74.040549, 40.599244], [-74.035112, 40.578188], [-74.034613, 40.576095], [-74.036339, 40.562691], [-74.038053, 40.550339], [-74.055766, 40.651475], [-74.049594, 40.661622], [-74.0378384, 40.6810948], [-74.035443, 40.685125], [-74.019577, 40.679654]]]}}, {"type": "Feature", "properties": {"name": "Queens"}, "geometry": {"type": "Polygon", "coordinates": [[[-74.04378, 40.507828], [-73.977874, 40.519095], [-73.90214, 40.492121], [-73.894613, 40.504089], [-73.893458, 40.505019], [-73.892204, 40.505399], [-73.890828, 40.50571], [-73.887951, 40.505989], [-73.883724, 40.506349], [-73.880367, 40.506659], [-73.877616, 40.507326], [-73.874538, 40.508179], [-73.869582, 40.509806], [-73.86295, 40.511795], [-73.859452, 40.512724], [-73.853158, 40.515212], [-73.842826, 40.518744], [-73.819185, 40.527463], [-73.812558, 40.529976], [-73.810942, 40.530401], [-73.808429, 40.530952], [-73.805015, 40.531556], [-73.800523, 40.532397], [-73.793103, 40.53423], [-73.785891, 40.535875], [-73.783646, 40.536351], [-73.782261, 40.536179], [-73.777586, 40.534868], [-73.772976, 40.533878], [-73.768666, 40.532882], [-73.76322, 40.532148], [-73.757289, 40.531215], [-73.757153, 40.531218], [-73.7568543, 40.5563343], [-73.756571, 40.580153], [-73.756565, 40.584405], [-73.756531, 40.58617], [-73.750949, 40.590604], [-73.749651, 40.591625], [-73.748767, 40.592286], [-73.7486655, 40.5923397], [-73.744774, 40.593791], [-73.743622, 40.593743], [-73.737586, 40.593507], [-73.7379441, 40.5944691], [-73.7380169, 40.5946676], [-73.738552, 40.596214], [-73.7384217, 40.5981343], [-73.7384149, 40.5982357], [-73.738117, 40.602627], [-73.739156, 40.604057], [-73.739935, 40.604253], [-73.740423, 40.604684], [-73.741654, 40.606094], [-73.743749, 40.607649], [-73.743059, 40.607997], [-73.745486, 40.611902], [-73.746682, 40.611449], [-73.747183, 40.612158], [-73.747647, 40.612035], [-73.747935, 40.612369], [-73.748864, 40.612027], [-73.748959, 40.612188], [-73.750196, 40.611742], [-73.75332, 40.610763], [-73.75473, 40.610336], [-73.755013, 40.610251], [-73.755248, 40.610179], [-73.755241, 40.610225], [-73.755161, 40.610726], [-73.759791, 40.611408], [-73.765355, 40.614874], [-73.766453, 40.61487], [-73.766567, 40.615544], [-73.766819, 40.617033], [-73.76729, 40.620372], [-73.7670803, 40.6240423], [-73.763703, 40.627968], [-73.749708, 40.63331], [-73.7474786, 40.6341899], [-73.745502, 40.63497], [-73.744392, 40.6372], [-73.744057, 40.637577], [-73.743693, 40.637802], [-73.74334, 40.637962], [-73.743083, 40.638042], [-73.742597, 40.638098], [-73.742462, 40.638096], [-73.742046, 40.63803], [-73.741872, 40.637998], [-73.741671, 40.637934], [-73.741344, 40.637766], [-73.741253, 40.637691], [-73.741162, 40.637556], [-73.74118, 40.637437], [-73.741238, 40.637308], [-73.741328, 40.63718], [-73.741502, 40.637013], [-73.74219, 40.636198], [-73.74245, 40.635836], [-73.742633, 40.635302], [-73.742602, 40.635114], [-73.742491, 40.634998], [-73.742355, 40.634948], [-73.741958, 40.634898], [-73.741715, 40.634913], [-73.7401621, 40.6351681], [-73.739438, 40.635287], [-73.739484, 40.635449], [-73.7397, 40.636208], [-73.740447, 40.637943], [-73.740838, 40.638517], [-73.742719, 40.64067], [-73.741885, 40.64119], [-73.742179, 40.641809], [-73.741033, 40.646967], [-73.741137, 40.647258], [-73.740708, 40.647611], [-73.740411, 40.647886], [-73.739855, 40.647995], [-73.739368, 40.648048], [-73.739008, 40.648154], [-73.738263, 40.648521], [-73.737587, 40.648816], [-73.735034, 40.64979], [-73.732242, 40.65011], [-73.731016, 40.650233], [-73.730328, 40.650362], [-73.729065, 40.650784], [-73.724804, 40.652333], [-73.7248007, 40.6534356], [-73.724799, 40.653991], [-73.724902, 40.654374], [-73.725384, 40.655356], [-73.725629, 40.655603], [-73.7257583, 40.65641], [-73.725815, 40.6567639], [-73.725918, 40.657318], [-73.726357, 40.658643], [-73.727087, 40.660094], [-73.727894, 40.661469], [-73.728276, 40.663128], [-73.72777, 40.66313], [-73.727734, 40.664252], [-73.727706, 40.665029], [-73.728429, 40.665968], [-73.727977, 40.670643], [-73.727575, 40.673998], [-73.7275366, 40.6741534], [-73.7274918, 40.6742862], [-73.727441, 40.674429], [-73.727141, 40.675096], [-73.7269772, 40.6754381], [-73.7267121, 40.6760953], [-73.726568, 40.6764369], [-73.7265439, 40.6764937], [-73.7264362, 40.6767525], [-73.7262728, 40.6771661], [-73.7262437, 40.6772616], [-73.7262091, 40.6773944], [-73.7260294, 40.6780375], [-73.7260128, 40.6780968], [-73.7259974, 40.6781517], [-73.7258314, 40.678746], [-73.7256431, 40.6795169], [-73.7256271, 40.679704], [-73.7256351, 40.6799176], [-73.725687, 40.68025], [-73.7257671, 40.6809466], [-73.725796, 40.68136], [-73.72582, 40.6816404], [-73.725907, 40.682657], [-73.7258899, 40.6829493], [-73.7258287, 40.6832562], [-73.725913, 40.683302], [-73.726429, 40.692683], [-73.7266226, 40.6969399], [-73.726635, 40.697212], [-73.726845, 40.703252], [-73.727259, 40.711051], [-73.7293949, 40.7191809], [-73.729515, 40.719638], [-73.730287, 40.722161], [-73.729976, 40.722344], [-73.729501, 40.722582], [-73.728832, 40.722851], [-73.727476, 40.723347], [-73.726333, 40.723787], [-73.725866, 40.723944], [-73.724083, 40.724477], [-73.721079, 40.725283], [-73.717571, 40.726226], [-73.717029, 40.726348], [-73.716545, 40.726438], [-73.7145684, 40.7266867], [-73.712293, 40.726973], [-73.71071, 40.727184], [-73.708609, 40.727613], [-73.707954, 40.727768], [-73.701507, 40.737458], [-73.700233, 40.739303], [-73.700906, 40.745687], [-73.701328, 40.750115], [-73.701582, 40.752467], [-73.721788, 40.764975], [-73.739643, 40.775992], [-73.7467107, 40.780354], [-73.748931, 40.781725], [-73.750139, 40.782416], [-73.7502977, 40.782509], [-73.750344, 40.782553], [-73.750382, 40.782593], [-73.7563731, 40.7886389], [-73.7660428, 40.7983959], [-73.77674, 40.809188], [-73.779665, 40.812135], [-73.781594, 40.804621], [-73.783873, 40.801954], [-73.784067, 40.801777], [-73.786361, 40.80071], [-73.787674, 40.800075], [-73.789635, 40.799797], [-73.790179, 40.79976], [-73.79244, 40.799922], [-73.7944, 40.800114], [-73.803485, 40.802963], [-73.807192, 40.804163], [-73.810129, 40.80482], [-73.815556, 40.805582], [-73.818335, 40.80547], [-73.821256, 40.804901], [-73.8272303, 40.8032289], [-73.827841, 40.803058], [-73.830178, 40.802389], [-73.850391, 40.800419], [-73.862928, 40.797265], [-73.870591, 40.790308], [-73.870767, 40.789133], [-73.871064, 40.786902], [-73.872152, 40.786533], [-73.87364, 40.786028], [-73.875055, 40.785959], [-73.876081, 40.785909], [-73.879583, 40.785739], [-73.882973, 40.786271], [-73.883043, 40.786282], [-73.883108, 40.786292], [-73.883392, 40.786336], [-73.884742, 40.786548], [-73.88607, 40.786756], [-73.888447, 40.78713], [-73.888732, 40.787176], [-73.889106, 40.787386], [-73.889298, 40.787632], [-73.889571, 40.788194], [-73.88967, 40.788506], [-73.889677, 40.788527], [-73.889728, 40.788687], [-73.889731, 40.788696], [-73.889922, 40.789296], [-73.890054, 40.789712], [-73.890205, 40.790082], [-73.890431, 40.790262], [-73.890755, 40.790264], [-73.890972, 40.790266], [-73.89179, 40.790272], [-73.891793, 40.790272], [-73.891915, 40.790341], [-73.892076, 40.790349], [-73.892194, 40.790356], [-73.903803, 40.793623], [-73.912528, 40.796118], [-73.9098375, 40.7909643], [-73.9117549, 40.7897803], [-73.9121128, 40.7895704], [-73.9126153, 40.7894243], [-73.9147322, 40.7874646], [-73.9156319, 40.7864462], [-73.920761, 40.782162], [-73.922345, 40.780811], [-73.928236, 40.777132], [-73.928695, 40.776757], [-73.930038, 40.776398], [-73.930643, 40.776672], [-73.93115, 40.777623], [-73.931708, 40.777998], [-73.933184, 40.778206], [-73.933803, 40.778272], [-73.934558, 40.77825], [-73.9348937, 40.7780643], [-73.935903, 40.777506], [-73.936347, 40.777138], [-73.937062, 40.776185], [-73.937838, 40.774832], [-73.937898, 40.774033], [-73.9378787, 40.773831], [-73.9375174, 40.7725227], [-73.9359429, 40.7717347], [-73.9355572, 40.7715992], [-73.935045, 40.7711861], [-73.935226, 40.770609], [-73.935903, 40.770001], [-73.939826, 40.768073], [-73.9406496, 40.7675512], [-73.941379, 40.767089], [-73.943339, 40.765003], [-73.945698, 40.761809], [-73.9506844, 40.7554267], [-73.9509011, 40.7551524], [-73.9510922, 40.7549506], [-73.951614, 40.754299], [-73.952027, 40.75383], [-73.9521428, 40.7537746], [-73.952454, 40.7533899], [-73.9528208, 40.7530006], [-73.9530476, 40.7527668], [-73.9534795, 40.752257], [-73.9540201, 40.7518142], [-73.954298, 40.751455], [-73.9544422, 40.751353], [-73.9545472, 40.7512427], [-73.954503, 40.751138], [-73.954504, 40.751136], [-73.954537, 40.751035], [-73.954674, 40.750879], [-73.9547578, 40.7507797], [-73.9561547, 40.7497876], [-73.9572708, 40.7491674], [-73.957853, 40.7483993], [-73.9587189, 40.7471165], [-73.959334, 40.7461726], [-73.9598548, 40.7451772], [-73.9607468, 40.7441711], [-73.9621661, 40.7413534], [-73.962978, 40.738393], [-73.9626667, 40.7369801], [-73.962547, 40.736437], [-73.957176, 40.739246], [-73.955248, 40.739434], [-73.953823, 40.739409], [-73.952264, 40.739155], [-73.950077, 40.738554], [-73.947442, 40.737647], [-73.942161, 40.735728], [-73.941287, 40.734948], [-73.940838, 40.734252], [-73.9399, 40.732084], [-73.939496, 40.731271], [-73.938361, 40.730354], [-73.936871, 40.729494], [-73.934938, 40.728904], [-73.92989, 40.728178], [-73.929206, 40.727742], [-73.927425, 40.725851], [-73.925499, 40.721605], [-73.924438, 40.720405], [-73.924392, 40.71839], [-73.923139, 40.717302], [-73.922804, 40.716745], [-73.922727, 40.716199], [-73.923225, 40.71596], [-73.923993, 40.715727], [-73.924558, 40.715216], [-73.924055, 40.714014], [-73.923863, 40.713821], [-73.922365, 40.712945], [-73.921442, 40.71093], [-73.920744, 40.710528], [-73.921898, 40.709393], [-73.918849, 40.707606], [-73.9186012, 40.7074509], [-73.9185519, 40.7074225], [-73.9184815, 40.7073819], [-73.9184148, 40.7073436], [-73.9183747, 40.7073205], [-73.918099, 40.707148], [-73.911806, 40.703433], [-73.912903, 40.70236], [-73.910678, 40.701044], [-73.911819, 40.699939], [-73.911039, 40.699535], [-73.909534, 40.698672], [-73.908772, 40.698254], [-73.906521, 40.696959], [-73.904459, 40.695804], [-73.905974, 40.694229], [-73.9051744, 40.6937756], [-73.9038701, 40.6930313], [-73.901664, 40.691779], [-73.902111, 40.691259], [-73.900667, 40.688047], [-73.901216, 40.687841], [-73.896477, 40.682316], [-73.89639, 40.682581], [-73.896252, 40.682839], [-73.895974, 40.683264], [-73.895063, 40.684348], [-73.894712, 40.68474], [-73.894148, 40.685287], [-73.893212, 40.68403], [-73.893127, 40.684029], [-73.892737, 40.683499], [-73.890314, 40.684899], [-73.88973, 40.684227], [-73.888584, 40.685042], [-73.887753, 40.686132], [-73.884625, 40.687656], [-73.883971, 40.687933], [-73.882465, 40.689152], [-73.879121, 40.691649], [-73.874301, 40.694302], [-73.869071, 40.695297], [-73.867912, 40.690461], [-73.867609, 40.68913], [-73.867453, 40.688361], [-73.866856, 40.686324], [-73.866591, 40.685257], [-73.866519, 40.684458], [-73.866315, 40.683248], [-73.866026, 40.681917], [-73.864994, 40.682128], [-73.864101, 40.682371], [-73.8633459, 40.679315], [-73.863323, 40.6792205], [-73.8633096, 40.6791652], [-73.863297, 40.679114], [-73.8628494, 40.679137], [-73.862345, 40.679163], [-73.8623262, 40.679087], [-73.8610735, 40.6740317], [-73.860382, 40.671241], [-73.857633, 40.671655], [-73.8572877, 40.67032], [-73.856714, 40.668102], [-73.855698, 40.663712], [-73.85841, 40.663271], [-73.857572, 40.659913], [-73.859508, 40.659681], [-73.860342, 40.659529], [-73.861617, 40.659103], [-73.863538, 40.658296], [-73.862943, 40.65751], [-73.861247, 40.655269], [-73.857376, 40.650195], [-73.856693, 40.649302], [-73.855139, 40.642871], [-73.84803, 40.643834], [-73.832945, 40.628979], [-73.833023, 40.627981], [-73.833232, 40.624091], [-73.833279, 40.623245], [-73.833296, 40.622944], [-73.833815, 40.613655], [-73.834171, 40.607899], [-73.83424, 40.60679], [-73.835197, 40.605646], [-73.849784, 40.588196], [-73.859872, 40.583496], [-73.867356, 40.579983], [-73.874585, 40.576559], [-73.878953, 40.574447], [-73.89155, 40.572346], [-73.90557, 40.571408], [-73.9614, 40.56256], [-73.999394, 40.556568], [-74.002418, 40.556046], [-74.013366, 40.554293], [-74.028447, 40.551909], [-74.038053, 40.550339], [-74.04378, 40.507828]]]}}, {"type": "Feature", "properties": {"name": "Manhasset"}, "geometry": {"type": "Polygon", "coordinates": [[[-73.715663, 40.782525], [-73.714254, 40.780475], [-73.708699, 40.78092], [-73.707985, 40.780964], [-73.707978, 40.780892], [-73.707342, 40.780959], [-73.708204, 40.78189], [-73.708264, 40.782249], [-73.704551, 40.782702], [-73.7044498, 40.7823898], [-73.705266, 40.782207], [-73.704985, 40.78152], [-73.7042, 40.781667], [-73.704217, 40.781397], [-73.704163, 40.781197], [-73.704171, 40.780927], [-73.703648, 40.780685], [-73.703507, 40.780209], [-73.703349, 40.779567], [-73.703237, 40.779075], [-73.703179, 40.778669], [-73.703169, 40.778285], [-73.703196, 40.776731], [-73.703234, 40.776247], [-73.703301, 40.775927], [-73.704228, 40.775765], [-73.704149, 40.775474], [-73.704023, 40.774694], [-73.703954, 40.773806], [-73.703962, 40.773372], [-73.703455, 40.773346], [-73.703602, 40.771127], [-73.70371, 40.770005], [-73.703765, 40.769708], [-73.703594, 40.769406], [-73.703166, 40.768956], [-73.703472, 40.769784], [-73.703379, 40.770552], [-73.703312, 40.771633], [-73.703281, 40.772737], [-73.70324, 40.77317], [-73.701187, 40.773349], [-73.701206, 40.772016], [-73.698625, 40.772159], [-73.698608, 40.774196], [-73.6964253, 40.7742237], [-73.696411, 40.7743334], [-73.696199, 40.775964], [-73.695916, 40.776557], [-73.69291, 40.776365], [-73.692924, 40.775937], [-73.690894, 40.77551], [-73.690729, 40.774998], [-73.688488, 40.77568], [-73.688906, 40.779121], [-73.687221, 40.779578], [-73.686958, 40.778689], [-73.683946, 40.779077], [-73.685043, 40.782795], [-73.686142, 40.785341], [-73.687643, 40.788595], [-73.68792, 40.788776], [-73.688623, 40.789063], [-73.689521, 40.789388], [-73.689708, 40.789416], [-73.68992, 40.7894], [-73.690302, 40.789324], [-73.690743, 40.789179], [-73.691177, 40.789143], [-73.691769, 40.789462], [-73.691982, 40.789763], [-73.692085, 40.79029], [-73.692109, 40.79069], [-73.6921, 40.791152], [-73.692312, 40.791831], [-73.692809, 40.792066], [-73.69319, 40.792204], [-73.692985, 40.792377], [-73.692016, 40.792737], [-73.689139, 40.793061], [-73.68912, 40.792943], [-73.688003, 40.793106], [-73.688052, 40.793375], [-73.687683, 40.793432], [-73.687081, 40.790872], [-73.686817, 40.790918], [-73.686602, 40.790862], [-73.6865, 40.790792], [-73.686431, 40.790719], [-73.686396, 40.790634], [-73.686398, 40.790544], [-73.685847, 40.790207], [-73.687485, 40.788846], [-73.687355, 40.788751], [-73.686897, 40.789125], [-73.6868516, 40.7888813], [-73.6862598, 40.7881678], [-73.686007, 40.788134], [-73.685754, 40.788079], [-73.685379, 40.787964], [-73.685135, 40.787866], [-73.684841, 40.787727], [-73.683834, 40.787105], [-73.683448, 40.786906], [-73.680815, 40.787199], [-73.681022, 40.78828], [-73.679007, 40.788705], [-73.678618, 40.787949], [-73.678628, 40.787741], [-73.678534, 40.787633], [-73.678349, 40.78756], [-73.675746, 40.787888], [-73.675592, 40.787353], [-73.6726682, 40.7876751], [-73.671789, 40.787772], [-73.671752, 40.787615], [-73.6706373, 40.7876312], [-73.6716659, 40.7915339], [-73.6704782, 40.7917361], [-73.6696287, 40.7918807], [-73.6694429, 40.7919123], [-73.668546, 40.792065], [-73.668315, 40.79134], [-73.667406, 40.791485], [-73.6672611, 40.7914686], [-73.6674114, 40.7918806], [-73.6675983, 40.7926783], [-73.6681558, 40.7944044], [-73.668355, 40.7949778], [-73.6687188, 40.7960312], [-73.6690513, 40.7971457], [-73.6690678, 40.7972462], [-73.669239, 40.797215], [-73.673171, 40.79632], [-73.676844, 40.795577], [-73.678741, 40.795316], [-73.686121, 40.794506], [-73.686506, 40.796581], [-73.686469, 40.796589], [-73.6868764, 40.7979549], [-73.687076, 40.798624], [-73.6886801, 40.7983392], [-73.689025, 40.798278], [-73.688677, 40.797256], [-73.6892707, 40.7971763], [-73.693124, 40.796659], [-73.693193, 40.796945], [-73.693017, 40.796967], [-73.69336, 40.798528], [-73.693712, 40.799609], [-73.695551, 40.79937], [-73.695172, 40.799852], [-73.694939, 40.800279], [-73.694866, 40.800454], [-73.694748, 40.800849], [-73.694703, 40.80108], [-73.694672, 40.801475], [-73.6947175, 40.8019364], [-73.6947889, 40.8023112], [-73.6948675, 40.8026472], [-73.6953578, 40.8042823], [-73.695537, 40.804298], [-73.695252, 40.803242], [-73.695043, 40.802299], [-73.694958, 40.802002], [-73.694959, 40.801728], [-73.695003, 40.801662], [-73.695708, 40.801491], [-73.696389, 40.801365], [-73.696575, 40.801301], [-73.696745, 40.801209], [-73.696824, 40.80114], [-73.701462, 40.800435], [-73.709359, 40.800157], [-73.710481, 40.800076], [-73.711324, 40.800042], [-73.7115843, 40.7997849], [-73.71125, 40.799076], [-73.71096, 40.798529], [-73.710743, 40.797661], [-73.710114, 40.79677], [-73.710192, 40.795415], [-73.710363, 40.795389], [-73.710516, 40.795365], [-73.710281, 40.794657], [-73.710183, 40.794362], [-73.710067, 40.794011], [-73.709619, 40.793141], [-73.709581, 40.79293], [-73.709559, 40.792869], [-73.709502, 40.792752], [-73.709465, 40.79256], [-73.709467, 40.792422], [-73.709229, 40.792205], [-73.708881, 40.792079], [-73.709037, 40.791796], [-73.708903, 40.791743], [-73.708788, 40.791911], [-73.708521, 40.791805], [-73.709116, 40.791186], [-73.709791, 40.790443], [-73.708761, 40.789405], [-73.708579, 40.789366], [-73.708498, 40.789317], [-73.708393, 40.789202], [-73.708162, 40.78864], [-73.708057, 40.788667], [-73.707846, 40.788615], [-73.706757, 40.787663], [-73.707072, 40.787539], [-73.7065711, 40.7864187], [-73.706833, 40.786498], [-73.706749, 40.786229], [-73.708, 40.786115], [-73.70731, 40.785539], [-73.708211, 40.785415], [-73.7094, 40.785275], [-73.710144, 40.78515], [-73.71091, 40.784922], [-73.71141, 40.784719], [-73.712028, 40.784389], [-73.712644, 40.784012], [-73.713729, 40.783428], [-73.714302, 40.78316], [-73.714811, 40.782945], [-73.715663, 40.782525]]]}}]}